[{"OBJECT_NAME":"STARLINK-32121","OBJECT_ID":"2024-131K","EPOCH":"2026-03-09T06:30:06.932448","MEAN_MOTION":15.3018887,"ECCENTRICITY":0.00014702,"INCLINATION":53.1616,"RA_OF_ASC_NODE":54.4383,"ARG_OF_PERICENTER":85.7966,"MEAN_ANOMALY":274.3203,"EPHEMERIS_TYPE":0,"CLASSIFICATION_TYPE":"U","NORAD_CAT_ID":60264,"ELEMENT_SET_NO":999,"REV_AT_EPOCH":9170,"BSTAR":-4.8616436e-5,"MEAN_MOTION_DOT":-1.798e-5,"MEAN_MOTION_DDOT":0},{"OBJECT_NAME":"GLOBAL-34","OBJECT_ID":"2026-043A","EPOCH":"2026-03-09T11:23:30.999840","MEAN_MOTION":15.31488019,"ECCENTRICITY":0.00068849,"INCLINATION":42.0215,"RA_OF_ASC_NODE":76.7399,"ARG_OF_PERICENTER":289.2632,"MEAN_ANOMALY":70.746,"EPHEMERIS_TYPE":0,"CLASSIFICATION_TYPE":"U","NORAD_CAT_ID":68098,"ELEMENT_SET_NO":999,"REV_AT_EPOCH":53,"BSTAR":0.00045822046,"MEAN_MOTION_DOT":0.00014018,"MEAN_MOTION_DDOT":0}]
